[{"OBJECT_NAME":"STARLINK-34139","OBJECT_ID":"2025-099Z","EPOCH":"2026-03-09T06:56:46.021056","MEAN_MOTION":15.27602669,"ECCENTRICITY":0.00031313,"INCLINATION":43.0025,"RA_OF_ASC_NODE":175.138,"ARG_OF_PERICENTER":286.4319,"MEAN_ANOMALY":73.6189,"EPHEMERIS_TYPE":0,"CLASSIFICATION_TYPE":"U","NORAD_CAT_ID":63975,"ELEMENT_SET_NO":999,"REV_AT_EPOCH":4722,"BSTAR":0.0014155329,"MEAN_MOTION_DOT":0.00038926,"MEAN_MOTION_DDOT":0},{"OBJECT_NAME":"OBJECT V","OBJECT_ID":"2025-155V","EPOCH":"2026-03-09T20:35:20.067360","MEAN_MOTION":15.27583301,"ECCENTRICITY":0.00080353,"INCLINATION":97.4485,"RA_OF_ASC_NODE":37.249,"ARG_OF_PERICENTER":152.8264,"MEAN_ANOMALY":207.3397,"EPHEMERIS_TYPE":0,"CLASSIFICATION_TYPE":"U","NORAD_CAT_ID":64895,"ELEMENT_SET_NO":999,"REV_AT_EPOCH":6557,"BSTAR":0.00051002361,"MEAN_MOTION_DOT":0.00013705,"MEAN_MOTION_DDOT":0}]
